XRISM                   
1 57800U 23137A   24140.50124984  .00009270  00000+0  70382-3 0  9990
2 57800  31.0023 195.1750 0009618 282.7003  77.2557 15.00911539 38294
